[{"OBJECT_NAME":"STARLINK-31450","OBJECT_ID":"2024-036J","EPOCH":"2025-08-20T04:24:23.073696","MEAN_MOTION":15.30208642,"ECCENTRICITY":0.0001036,"INCLINATION":53.1581,"RA_OF_ASC_NODE":293.9642,"ARG_OF_PERICENTER":59.3534,"MEAN_ANOMALY":300.7569,"EPHEMERIS_TYPE":0,"CLASSIFICATION_TYPE":"U","NORAD_CAT_ID":59006,"ELEMENT_SET_NO":999,"REV_AT_EPOCH":8448,"BSTAR":-1.4802e-6,"MEAN_MOTION_DOT":-4.03e-6,"MEAN_MOTION_DDOT":0},{"OBJECT_NAME":"STARLINK-31456","OBJECT_ID":"2024-036K","EPOCH":"2025-08-20T10:34:32.782080","MEAN_MOTION":15.30182521,"ECCENTRICITY":0.0001231,"INCLINATION":53.1592,"RA_OF_ASC_NODE":292.7329,"ARG_OF_PERICENTER":78.882,"MEAN_ANOMALY":281.2319,"EPHEMERIS_TYPE":0,"CLASSIFICATION_TYPE":"U","NORAD_CAT_ID":59007,"ELEMENT_SET_NO":999,"REV_AT_EPOCH":8452,"BSTAR":2.3139e-6,"MEAN_MOTION_DOT":-2.91e-6,"MEAN_MOTION_DDOT":0},{"OBJECT_NAME":"STARLINK-31460","OBJECT_ID":"2024-036L","EPOCH":"2025-08-19T11:46:16.966560","MEAN_MOTION":15.3019517,"ECCENTRICITY":8.43e-5,"INCLINATION":53.1595,"RA_OF_ASC_NODE":297.4708,"ARG_OF_PERICENTER":107.6946,"MEAN_ANOMALY":252.4146,"EPHEMERIS_TYPE":0,"CLASSIFICATION_TYPE":"U","NORAD_CAT_ID":59008,"ELEMENT_SET_NO":999,"REV_AT_EPOCH":8436,"BSTAR":2.2995e-5,"MEAN_MOTION_DOT":3.22e-6,"MEAN_MOTION_DDOT":0},{"OBJECT_NAME":"STARLINK-31488","OBJECT_ID":"2024-036M","EPOCH":"2025-08-19T10:57:39.337920","MEAN_MOTION":15.30192256,"ECCENTRICITY":0.0001276,"INCLINATION":53.1601,"RA_OF_ASC_NODE":297.2542,"ARG_OF_PERICENTER":90.1573,"MEAN_ANOMALY":269.9574,"EPHEMERIS_TYPE":0,"CLASSIFICATION_TYPE":"U","NORAD_CAT_ID":59009,"ELEMENT_SET_NO":999,"REV_AT_EPOCH":8436,"BSTAR":5.6712e-5,"MEAN_MOTION_DOT":1.32e-5,"MEAN_MOTION_DDOT":0},{"OBJECT_NAME":"STARLINK-31528","OBJECT_ID":"2024-036N","EPOCH":"2025-08-20T11:47:28.693248","MEAN_MOTION":15.30191589,"ECCENTRICITY":0.0001323,"INCLINATION":53.1604,"RA_OF_ASC_NODE":293.045,"ARG_OF_PERICENTER":68.6251,"MEAN_ANOMALY":291.4891,"EPHEMERIS_TYPE":0,"CLASSIFICATION_TYPE":"U","NORAD_CAT_ID":59010,"ELEMENT_SET_NO":999,"REV_AT_EPOCH":8453,"BSTAR":2.5173e-5,"MEAN_MOTION_DOT":3.86e-6,"MEAN_MOTION_DDOT":0},{"OBJECT_NAME":"STARLINK-31491","OBJECT_ID":"2024-036P","EPOCH":"2025-08-20T11:49:00.490656","MEAN_MOTION":15.30176321,"ECCENTRICITY":0.0001269,"INCLINATION":53.1605,"RA_OF_ASC_NODE":293.0503,"ARG_OF_PERICENTER":99.7711,"MEAN_ANOMALY":260.3433,"EPHEMERIS_TYPE":0,"CLASSIFICATION_TYPE":"U","NORAD_CAT_ID":59011,"ELEMENT_SET_NO":999,"REV_AT_EPOCH":8452,"BSTAR":9.6504e-5,"MEAN_MOTION_DOT":2.498e-5,"MEAN_MOTION_DDOT":0},{"OBJECT_NAME":"STARLINK-31465","OBJECT_ID":"2024-036Q","EPOCH":"2025-08-20T11:41:23.946144","MEAN_MOTION":15.30194007,"ECCENTRICITY":0.0001391,"INCLINATION":53.1611,"RA_OF_ASC_NODE":293.017,"ARG_OF_PERICENTER":93.2169,"MEAN_ANOMALY":266.8991,"EPHEMERIS_TYPE":0,"CLASSIFICATION_TYPE":"U","NORAD_CAT_ID":59012,"ELEMENT_SET_NO":999,"REV_AT_EPOCH":8452,"BSTAR":5.6919e-6,"MEAN_MOTION_DOT":-1.91e-6,"MEAN_MOTION_DDOT":0},{"OBJECT_NAME":"STARLINK-31389","OBJECT_ID":"2024-036R","EPOCH":"2025-08-19T12:15:09.520704","MEAN_MOTION":15.30189321,"ECCENTRICITY":0.0001389,"INCLINATION":53.1612,"RA_OF_ASC_NODE":297.5869,"ARG_OF_PERICENTER":84.9535,"MEAN_ANOMALY":275.1624,"EPHEMERIS_TYPE":0,"CLASSIFICATION_TYPE":"U","NORAD_CAT_ID":59013,"ELEMENT_SET_NO":999,"REV_AT_EPOCH":8437,"BSTAR":3.457e-7,"MEAN_MOTION_DOT":-3.49e-6,"MEAN_MOTION_DDOT":0},{"OBJECT_NAME":"STARLINK-31454","OBJECT_ID":"2024-036S","EPOCH":"2025-08-20T11:36:54.010080","MEAN_MOTION":15.30146022,"ECCENTRICITY":0.0001601,"INCLINATION":53.1597,"RA_OF_ASC_NODE":292.9958,"ARG_OF_PERICENTER":62.7052,"MEAN_ANOMALY":297.4112,"EPHEMERIS_TYPE":0,"CLASSIFICATION_TYPE":"U","NORAD_CAT_ID":59014,"ELEMENT_SET_NO":999,"REV_AT_EPOCH":8452,"BSTAR":-0.0001922,"MEAN_MOTION_DOT":-6.038e-5,"MEAN_MOTION_DDOT":0},{"OBJECT_NAME":"STARLINK-31521","OBJECT_ID":"2024-036T","EPOCH":"2025-08-20T11:35:19.323456","MEAN_MOTION":15.30189864,"ECCENTRICITY":0.0001314,"INCLINATION":53.1607,"RA_OF_ASC_NODE":292.9888,"ARG_OF_PERICENTER":94.491,"MEAN_ANOMALY":265.6241,"EPHEMERIS_TYPE":0,"CLASSIFICATION_TYPE":"U","NORAD_CAT_ID":59015,"ELEMENT_SET_NO":999,"REV_AT_EPOCH":8452,"BSTAR":-7.2954e-6,"MEAN_MOTION_DOT":-5.75e-6,"MEAN_MOTION_DDOT":0},{"OBJECT_NAME":"STARLINK-31526","OBJECT_ID":"2024-036U","EPOCH":"2025-08-19T10:30:22.745664","MEAN_MOTION":15.30193634,"ECCENTRICITY":0.0001131,"INCLINATION":53.1595,"RA_OF_ASC_NODE":272.2299,"ARG_OF_PERICENTER":79.4673,"MEAN_ANOMALY":280.6456,"EPHEMERIS_TYPE":0,"CLASSIFICATION_TYPE":"U","NORAD_CAT_ID":59016,"ELEMENT_SET_NO":999,"REV_AT_EPOCH":8471,"BSTAR":-3.0962e-6,"MEAN_MOTION_DOT":-4.51e-6,"MEAN_MOTION_DDOT":0},{"OBJECT_NAME":"STARLINK-31406","OBJECT_ID":"2024-036V","EPOCH":"2025-08-20T10:06:52.771104","MEAN_MOTION":15.39613324,"ECCENTRICITY":0.0001146,"INCLINATION":53.159,"RA_OF_ASC_NODE":282.6739,"ARG_OF_PERICENTER":80.559,"MEAN_ANOMALY":279.5544,"EPHEMERIS_TYPE":0,"CLASSIFICATION_TYPE":"U","NORAD_CAT_ID":59017,"ELEMENT_SET_NO":999,"REV_AT_EPOCH":8466,"BSTAR":1.4777e-5,"MEAN_MOTION_DOT":1.92e-6,"MEAN_MOTION_DDOT":0},{"OBJECT_NAME":"STARLINK-31527","OBJECT_ID":"2024-036W","EPOCH":"2025-08-20T11:21:37.785600","MEAN_MOTION":15.30203589,"ECCENTRICITY":0.0001179,"INCLINATION":53.1606,"RA_OF_ASC_NODE":292.9392,"ARG_OF_PERICENTER":106.5447,"MEAN_ANOMALY":253.5683,"EPHEMERIS_TYPE":0,"CLASSIFICATION_TYPE":"U","NORAD_CAT_ID":59018,"ELEMENT_SET_NO":999,"REV_AT_EPOCH":8453,"BSTAR":-8.6927e-6,"MEAN_MOTION_DOT":-6.17e-6,"MEAN_MOTION_DDOT":0},{"OBJECT_NAME":"STARLINK-31436","OBJECT_ID":"2024-036X","EPOCH":"2025-08-20T11:50:31.094880","MEAN_MOTION":15.30188765,"ECCENTRICITY":0.000123,"INCLINATION":53.1604,"RA_OF_ASC_NODE":293.0552,"ARG_OF_PERICENTER":81.5685,"MEAN_ANOMALY":278.5455,"EPHEMERIS_TYPE":0,"CLASSIFICATION_TYPE":"U","NORAD_CAT_ID":59019,"ELEMENT_SET_NO":999,"REV_AT_EPOCH":8452,"BSTAR":3.0841e-5,"MEAN_MOTION_DOT":5.54e-6,"MEAN_MOTION_DDOT":0},{"OBJECT_NAME":"STARLINK-30996","OBJECT_ID":"2024-038A","EPOCH":"2025-08-20T08:00:01.999872","MEAN_MOTION":15.27595966,"ECCENTRICITY":0.0001579,"INCLINATION":43.0011,"RA_OF_ASC_NODE":84.2043,"ARG_OF_PERICENTER":273.1346,"MEAN_ANOMALY":62.6192,"EPHEMERIS_TYPE":0,"CLASSIFICATION_TYPE":"U","NORAD_CAT_ID":59023,"ELEMENT_SET_NO":999,"REV_AT_EPOCH":8399,"BSTAR":-0.00056503,"MEAN_MOTION_DOT":-0.00015785,"MEAN_MOTION_DDOT":0},{"OBJECT_NAME":"STARLINK-31006","OBJECT_ID":"2024-038B","EPOCH":"2025-08-19T19:05:27.788064","MEAN_MOTION":15.27578855,"ECCENTRICITY":2.25e-5,"INCLINATION":43.0002,"RA_OF_ASC_NODE":36.794,"ARG_OF_PERICENTER":280.9223,"MEAN_ANOMALY":79.1603,"EPHEMERIS_TYPE":0,"CLASSIFICATION_TYPE":"U","NORAD_CAT_ID":59024,"ELEMENT_SET_NO":999,"REV_AT_EPOCH":8446,"BSTAR":3.6415e-5,"MEAN_MOTION_DOT":7.41e-6,"MEAN_MOTION_DDOT":0},{"OBJECT_NAME":"STARLINK-31178","OBJECT_ID":"2024-038C","EPOCH":"2025-08-19T00:42:49.882464","MEAN_MOTION":15.25906928,"ECCENTRICITY":0.0001657,"INCLINATION":43.0001,"RA_OF_ASC_NODE":91.5637,"ARG_OF_PERICENTER":277.9606,"MEAN_ANOMALY":82.1057,"EPHEMERIS_TYPE":0,"CLASSIFICATION_TYPE":"U","NORAD_CAT_ID":59025,"ELEMENT_SET_NO":999,"REV_AT_EPOCH":8365,"BSTAR":-3.6828e-5,"MEAN_MOTION_DOT":-1.221e-5,"MEAN_MOTION_DDOT":0}]
