STARLINK-31450          
1 59006U 24036J   25232.18360039 -.00000403  00000+0 -14802-5 0  9997
2 59006  53.1581 293.9642 0001036  59.3534 300.7569 15.30208642 84484
STARLINK-31456          
1 59007U 24036K   25232.44065720 -.00000291  00000+0  23139-5 0  9993
2 59007  53.1592 292.7329 0001231  78.8820 281.2319 15.30182521 84525
STARLINK-31460          
1 59008U 24036L   25231.49047415  .00000322  00000+0  22995-4 0  9991
2 59008  53.1595 297.4708 0000843 107.6946 252.4146 15.30195170 84364
STARLINK-31488          
1 59009U 24036M   25231.45670530  .00001320  00000+0  56712-4 0  9991
2 59009  53.1601 297.2542 0001276  90.1573 269.9574 15.30192256 84360
STARLINK-31528          
1 59010U 24036N   25232.49130432  .00000386  00000+0  25173-4 0  9998
2 59010  53.1604 293.0450 0001323  68.6251 291.4891 15.30191589 84532
STARLINK-31491          
1 59011U 24036P   25232.49236679  .00002498  00000+0  96504-4 0  9991
2 59011  53.1605 293.0503 0001269  99.7711 260.3433 15.30176321 84521
STARLINK-31465          
1 59012U 24036Q   25232.48708271 -.00000191  00000+0  56919-5 0  9999
2 59012  53.1611 293.0170 0001391  93.2169 266.8991 15.30194007 84522
STARLINK-31389          
1 59013U 24036R   25231.51052686 -.00000349  00000+0  34570-6 0  9990
2 59013  53.1612 297.5869 0001389  84.9535 275.1624 15.30189321 84371
STARLINK-31454          
1 59014U 24036S   25232.48395845 -.00006038  00000+0 -19220-3 0  9999
2 59014  53.1597 292.9958 0001601  62.7052 297.4112 15.30146022 84524
STARLINK-31521          
1 59015U 24036T   25232.48286254 -.00000575  00000+0 -72954-5 0  9998
2 59015  53.1607 292.9888 0001314  94.4910 265.6241 15.30189864 84526
STARLINK-31526          
1 59016U 24036U   25231.43776326 -.00000451  00000+0 -30962-5 0  9993
2 59016  53.1595 272.2299 0001131  79.4673 280.6456 15.30193634 84712
STARLINK-31406          
1 59017U 24036V   25232.42144411  .00000192  00000+0  14777-4 0  9993
2 59017  53.1590 282.6739 0001146  80.5590 279.5544 15.39613324 84660
STARLINK-31527          
1 59018U 24036W   25232.47335400 -.00000617  00000+0 -86927-5 0  9990
2 59018  53.1606 292.9392 0001179 106.5447 253.5683 15.30203589 84535
STARLINK-31436          
1 59019U 24036X   25232.49341545  .00000554  00000+0  30841-4 0  9991
2 59019  53.1604 293.0552 0001230  81.5685 278.5455 15.30188765 84529
STARLINK-30996          
1 59023U 24038A   25232.33335648 -.00015785  00000+0 -56503-3 0  9994
2 59023  43.0011  84.2043 0001579 273.1346  62.6192 15.27595966 83999
STARLINK-31006          
1 59024U 24038B   25231.79546051  .00000741  00000+0  36415-4 0  9991
2 59024  43.0002  36.7940 0000225 280.9223  79.1603 15.27578855 84466
STARLINK-31178          
1 59025U 24038C   25231.02974401 -.00001221  00000+0 -36828-4 0  9996
2 59025  43.0001  91.5637 0001657 277.9606  82.1057 15.25906928 83650
